IRIDIUM 155             
1 43573U 18061E   21162.33864843  .00000071  00000-0  18311-4 0  9995
2 43573  86.3963 102.2810 0001902  94.3815 265.7598 14.34218160150799
IRIDIUM 154             
1 43574U 18061F   21162.52891828  .00000094  00000-0  26334-4 0  9999
2 43574  86.3966 102.2477 0002367  78.7791 281.3671 14.34220205150875
IRIDIUM 163             
1 43575U 18061G   21162.37035651  .00000075  00000-0  19571-4 0  9991
2 43575  86.3964 102.2850 0002781  87.8650 272.2864 14.34218696150823
IRIDIUM 156             
1 43576U 18061H   21162.34499326  .00000069  00000-0  17452-4 0  9991
2 43576  86.3964 102.3007 0002376  92.8082 267.3386 14.34217927150813
IRIDIUM 164             
1 43577U 18061J   21162.53525676  .00000025  00000-0  17511-5 0  9990
2 43577  86.3967 102.2338 0002471  81.1780 278.9695 14.34215729150881
IRIDIUM 159             
1 43578U 18061K   21162.36400752  .00000070  00000-0  18080-4 0  9990
2 43578  86.3964 102.2806 0002332  80.4535 279.6924 14.34219250150825
IRIDIUM 180             
1 43922U 19002A   21162.36349382  .00000099  00000-0  28153-4 0  9993
2 43922  86.3988  39.1200 0002923  70.2605 289.8906 14.34220706126432
IRIDIUM 176             
1 43923U 19002B   21162.36132535  .00000163  00000-0  21897-4 0  9994
2 43923  86.6121  39.1535 0002376  83.2659 276.8829 14.72255533129735
IRIDIUM 168             
1 43924U 19002C   21162.56647252  .00000097  00000-0  27586-4 0  9991
2 43924  86.3990  39.0607 0002250  78.1126 282.0322 14.34215544126447
IRIDIUM 173             
1 43925U 19002D   21162.06539112  .00000091  00000-0  25393-4 0  9990
2 43925  86.3985  39.2336 0002260  78.1915 281.9534 14.34215670126353
IRIDIUM 169             
1 43926U 19002E   21162.50106428  .00000115  00000-0  31238-4 0  9992
2 43926  86.4238  70.6494 0002820 242.6860 117.4052 14.38609204126889
IRIDIUM 172             
1 43927U 19002F   21162.40790817  .00000094  00000-0  26496-4 0  9999
2 43927  86.3986  39.0926 0002344  79.0896 281.0564 14.34217432126419
IRIDIUM 175             
1 43928U 19002G   21162.08326987  .00000172  00000-0  23412-4 0  9999
2 43928  86.6105  39.0908 0002978  90.6565 269.4993 14.72256520129682
IRIDIUM 171             
1 43929U 19002H   21162.38886791  .00000091  00000-0  25379-4 0  9991
2 43929  86.3997  39.2035 0002240  78.5074 281.6373 14.34215328126408
IRIDIUM 170             
1 43930U 19002J   21162.36751354  .00000171  00000-0  23243-4 0  9994
2 43930  86.6121  39.1572 0002602  82.6159 277.5353 14.72253032129747
IRIDIUM 167             
1 43931U 19002K   21162.38254432  .00000095  00000-0  26923-4 0  9995
2 43931  86.3987  39.1095 0002674  71.2617 288.8869 14.34220212126406
